{
  "norad_id": 69028,
  "name": "STARLINK-37634",
  "history": [
    {
      "epoch": "2026-05-12T20:00:01.999008Z",
      "apogee_km": 311.9843298609321,
      "perigee_km": 310.28525482567784,
      "latitude_deg": -37.5505279691958,
      "longitude_deg": -178.06190772504772,
      "height_km": 326.0716758346744,
      "semi_major_axis_km": 6689.271792343305,
      "eccentricity": 0.000127,
      "inclination_deg": 97.2885,
      "raan_deg": 346.9381,
      "arg_perigee_deg": 89.9496,
      "mean_anomaly_deg": 232.4376,
      "mean_motion_rev_day": 15.86844967
    }
  ]
}