STARLINK-37634          
1 69028U 26101D   26132.83335648 -.02133478  00000+0 -97308-2 0  9997
2 69028  97.2885 346.9381 0001269  89.9496 232.4376 15.86844967  2280
